STARLINK-35785          
1 67176U 25303P   25351.60835648 -.00002699  85337-5  00000+0 0  9993
2 67176  43.0100  69.0834 0011500 323.6500   9.4800 16.01284782    14
STARLINK-35853          
1 67177U 25303Q   25351.60835648 -.00002699  85337-5  00000+0 0  9994
2 67177  43.0100  69.0834 0011500 323.6500   9.4800 16.01284782    15
STARLINK-35878          
1 67178U 25303R   25351.60835648 -.00002699  85337-5  00000+0 0  9995
2 67178  43.0100  69.0834 0011500 323.6500   9.4800 16.01284782    16
STARLINK-35793          
1 67179U 25303S   25351.60835648 -.00002699  85337-5  00000+0 0  9996
2 67179  43.0100  69.0834 0011500 323.6500   9.4800 16.01284782    17
STARLINK-35876          
1 67180U 25303T   25351.60835648 -.00002699  85337-5  00000+0 0  9998
2 67180  43.0100  69.0834 0011500 323.6500   9.4800 16.01284782    19
STARLINK-35766          
1 67181U 25303U   25351.60835648 -.00002699  85337-5  00000+0 0  9999
2 67181  43.0100  69.0834 0011500 323.6500   9.4800 16.01284782    10
STARLINK-35782          
1 67182U 25303V   25351.60835648 -.00002699  85337-5  00000+0 0  9990
2 67182  43.0100  69.0834 0011500 323.6500   9.4800 16.01284782    11
STARLINK-35719          
1 67183U 25303W   25351.60835648 -.00002699  85337-5  00000+0 0  9991
2 67183  43.0100  69.0834 0011500 323.6500   9.4800 16.01284782    12
STARLINK-35910          
1 67184U 25303X   25351.60835648 -.00002699  85337-5  00000+0 0  9992
2 67184  43.0100  69.0834 0011500 323.6500   9.4800 16.01284782    13
STARLINK-35859          
1 67185U 25303Y   25351.60835648 -.00002699  85337-5  00000+0 0  9993
2 67185  43.0100  69.0834 0011500 323.6500   9.4800 16.01284782    14
STARLINK-35857          
1 67186U 25303Z   25351.60835648 -.00002699  85337-5  00000+0 0  9994
2 67186  43.0100  69.0834 0011500 323.6500   9.4800 16.01284782    15
STARLINK-35880          
1 67187U 25303AA  25351.60835648 -.00002699  85337-5  00000+0 0  9995
2 67187  43.0100  69.0834 0011500 323.6500   9.4800 16.01284782    16
STARLINK-35675          
1 67188U 25303AB  25351.60835648 -.00002699  85337-5  00000+0 0  9996
2 67188  43.0100  69.0834 0011500 323.6500   9.4800 16.01284782    17
STARLINK-35889          
1 67189U 25303AC  25351.60835648 -.00002699  85337-5  00000+0 0  9997
2 67189  43.0100  69.0834 0011500 323.6500   9.4800 16.01284782    18
STARLINK-35888          
1 67190U 25303AD  25351.60835648 -.00002699  85337-5  00000+0 0  9999
2 67190  43.0100  69.0834 0011500 323.6500   9.4800 16.01284782    10
STARLINK-35716          
1 67191U 25303AE  25351.60835648 -.00002699  85337-5  00000+0 0  9990
2 67191  43.0100  69.0834 0011500 323.6500   9.4800 16.01284782    11
STARLINK-36182          
1 67192U 25304A   26002.95091613 -.00366321  00000+0 -43704-2 0  9995
2 67192  69.9990 347.5829 0005829 256.9378 103.1164 15.61976351  3824
STARLINK-36279          
1 67193U 25304B   26003.46183166  .01275588  00000+0  11597-1 0  9995
2 67193  69.9999 346.1548 0028002 263.5657  96.2347 15.64595498  3938
STARLINK-36284          
1 67194U 25304C   26003.39779236  .02064045  00000+0  18710-1 0  9996
2 67194  70.0003 346.3320 0016844 267.9696  91.9568 15.64451228  3928
STARLINK-36291          
1 67195U 25304D   26003.07771936  .03455374  00000+0  30948-1 0  9998
2 67195  69.9988 347.2226 0015416 224.8809 135.1138 15.64086883  3874
STARLINK-36239          
1 67196U 25304E   26002.94956082 -.00692951  00000+0 -86696-2 0  9996
2 67196  69.9980 347.5750 0005143 287.9039  72.1592 15.61779177  3857
STARLINK-36283          
1 67197U 25304F   26003.46081602  .01326517  00000+0  13158-1 0  9995
2 67197  70.0001 346.1500 0018241 312.5520  47.4132 15.62922522  3935
STARLINK-36267          
1 67198U 25304G   26003.39697892  .00449516  00000+0  44596-2 0  9997
2 67198  70.0006 346.3293 0022708 261.1840  98.6782 15.63934079  3894
STARLINK-36268          
1 67199U 25304H   26002.75635470 -.00606662  00000+0 -72278-2 0  9998
2 67199  69.9963 348.1067 0003371 255.8391 104.2427 15.62782222  3822
STARLINK-36270          
1 67200U 25304J   26003.14018085  .01954876  00000+0  18783-1 0  9994
2 67200  69.9988 347.0372 0014077 326.7072  33.3233 15.63164040  3884
STARLINK-36262          
1 67201U 25304K   26003.33230943  .00238552  00000+0  27244-2 0  9993
2 67201  69.9998 346.5044 0003296 264.4866  95.5950 15.61252083  3919
STARLINK-36263          
1 67202U 25304L   26002.94751748 -.00809910  00000+0 -10297-1 0  9994
2 67202  69.9995 347.5703 0005259 309.6051  50.4676 15.61735314  3850
STARLINK-36224          
1 67203U 25304M   26003.39564983  .00308363  00000+0  34593-2 0  9998
2 67203  69.9994 346.3229 0005812 324.4653  35.6151 15.61479467  3923
STARLINK-36185          
1 67204U 25304N   26003.13902929 -.00017208  00000+0 -19804-3 0  9993
2 67204  70.0002 347.0339 0004701 316.3208  43.7611 15.61554629  3889
STARLINK-36197          
1 67205U 25304P   26002.94648718 -.00833441  00000+0 -10455-1 0  9991
2 67205  70.0018 347.5670 0002427 239.5021 120.5932 15.61788504  3827
STARLINK-36056          
1 67206U 25304Q   26003.45873914 -.01963765  00000+0 -27641-1 0  9996
2 67206  69.9992 346.1410 0002540 279.4851  80.6052 15.59849559  3906
STARLINK-36225          
1 67207U 25304R   26003.00987009 -.00636057  00000+0 -79512-2 0  9994
2 67207  70.0002 347.3859 0003605 266.8928  93.1851 15.61638761  3865
STARLINK-36265          
1 67208U 25304S   26003.45808976  .00219749  00000+0  25039-2 0  9997
2 67208  70.0001 346.1401 0011027 311.1083  48.9155 15.61316146  3931
STARLINK-36226          
1 67209U 25304T   26002.94512407 -.00859128  00000+0 -10812-1 0  9997
2 67209  70.0016 347.5619 0002262 243.3126 116.7834 15.61777599  3851
STARLINK-36173          
1 67210U 25304U   26003.39319089 -.01946345  00000+0 -27004-1 0  9990
2 67210  70.0012 346.3166 0005727 305.6839  54.3818 15.60147702  3928
STARLINK-36280          
1 67211U 25304V   26002.94443280 -.00418346  00000+0 -50150-2 0  9995
2 67211  69.9984 347.5553 0004120 169.8644 190.2631 15.62032218  3859
STARLINK-36213          
1 67212U 25304W   26003.45667267 -.01345682  00000+0 -18591-1 0  9991
2 67212  70.0013 346.1335 0005160 280.5011  79.5598 15.59636025  3935
STARLINK-36199          
1 67213U 25304X   26003.00621202  .02447114  00000+0  17696-1 0  9999
2 67213  69.9999 347.3713 0031342 230.7906 129.0506 15.69173707  3866
STARLINK-36203          
1 67214U 25304Y   26003.45597152 -.01910986  00000+0 -26968-1 0  9990
2 67214  70.0003 346.1319 0004485 282.5392  77.5297 15.59661723  3938
STARLINK-36221          
1 67215U 25304Z   26003.07089646  .05263592  00000+0  45280-1 0  9997
2 67215  69.9999 347.1958 0008399 292.1240  67.9061 15.64754392  3873
STARLINK-36212          
1 67216U 25304AA  26003.32666486 -.02327924  00000+0 -31647-1 0  9990
2 67216  69.9998 346.4828 0005884 231.3386 128.7279 15.60730415  3911
STARLINK-36216          
1 67217U 25304AB  26003.45497272 -.02028931  00000+0 -28540-1 0  9994
2 67217  69.9998 346.1277 0006048 255.6392 104.4127 15.59932965  3933
STARLINK-36211          
1 67218U 25304AC  26002.94204818 -.00937957  00000+0 -11889-1 0  9993
2 67218  69.9999 347.5496 0003218 249.2164 110.8683 15.61795826  3827
DISKSAT A               
1 67219U 25305A   25354.38090451  .00000510  00000+0  50887-4 0  9996
2 67219  45.0057 310.0654 0003912 276.1097  83.9332 15.05762698   337
DISKSAT B               
1 67220U 25305B   25354.24828476  .00000511  00000+0  51086-4 0  9992
2 67220  45.0108 310.7693 0004681 270.4757  89.5581 15.05702195   312
DISKSAT C               
1 67221U 25305C   25354.31471422  .00001256  00000+0  10191-3 0  9994
2 67221  45.0067 310.4143 0004387 282.7791  77.2594 15.05653670   312
DISKSAT D               
1 67222U 25305D   25354.31483363  .00001252  00000+0  10184-3 0  9990
2 67222  45.0056 310.4150 0004477 287.6101  72.4284 15.05567005   317
ELECTRON KICK STAGE R/B 
1 67223U 25305E   25357.29083347  .00018707  00000+0  18366-3 0  9992
2 67223  44.9877 292.9264 0177490 166.6089 193.9601 15.48545747   794
ELECTRON R/B            
1 67224U 25305F   25364.62617152  .00377813  94150-5  30408-3 0  9997
2 67224  44.9990 248.6775 0172790 350.9028   8.8762 15.89429425  1955
TJS-23                  
1 67226U 25306A   26003.05656088  .00000029  00000+0  00000+0 0  9997
2 67226   5.9639 298.3478 0001077 285.0970  75.1192  1.00275977   232
CZ-5 R/B                
1 67227U 25306B   26002.23975566  .00003994  00000+0  95745-3 0  9990
2 67227  16.3556 294.8442 7582788 186.5720 149.5922  1.92311739   265
QPS-SAR-15              
1 67228U 25307A   26003.24073872  .00010120  00000+0  87346-3 0  9990
2 67228  42.0075  52.5959 0009171 346.5997  13.4583 14.97239710  1942
ELECTRON KICK STAGE R/B 
1 67229U 25307B   26003.49092310  .00790792  20051-3  20405-2 0  9990
2 67229  41.9991  43.9416 0202983 331.4194  27.5650 15.67866162  2068
ELECTRON R/B            
1 67230U 25307C   25355.36249005  .00071881  81069-5  20248-3 0  9997
2 67230  41.9820 123.1026 0261408 268.1410  88.9482 15.55087105    19
SPACEMOBILE-006         
1 67232U 25309A   25360.75210442  .00001165  00000+0  72651-4 0  9997
2 67232  53.0002  40.8851 0010477 329.2446  30.7932 15.17699903   405
LVM3 R/B                
1 67233U 25309B   25360.74928094  .00001231  00000+0  72627-4 0  9993
2 67233  52.9350  40.7629 0010474 355.6984   4.3917 15.19340101   404
2025-310A               
1 67234U 25310A   25363.31529613  .00002994  00000+0  13914-3 0  9996
2 67234  97.9657   8.0673 0151612  68.9370 292.7996 15.11153747   571
SL-4 R/B                
1 67235U 25310B   25364.94554285  .00131108  22082-5  30581-3 0  9999
2 67235  97.9679  10.0184 0299672  57.0996 305.8706 15.50179935   832
FENGYUN 4C              
1 67246U 25312A   25360.90857406  .00039214  41525-6  21251-2 0  9998
2 67246  28.4641 334.3215 7309751 179.7824 181.1675  2.27841578    17
